{"_id":{"$oid":"5bc382ba6773a056d8303b8b"},"openStreetMapId":"292135703","location":{"coordinates":[10.7587531,59.9234799],"type":"Point"},"addr:city":"Oslo","addr:country":"NO","addr:housenumber":"55","addr:postcode":"0555","addr:street":"Thorvald Meyers gate","amenity":"cafe","cuisine":"coffee_shop","name":"Kaffebrenneriet","opening_hours":"Mo-Fr 07:00-19:00; Sa-Su 09:00-17:00","operator":"Kaffebrenneriet","phone":"+47 95262675","website":"http://www.kaffebrenneriet.no/butikkene/butikkside/kaffebrenneriet_thorvald_meyersgate_55/","wheelchair":"no"}
{"_id":{"$oid":"5bc382ba6773a056d8303b8c"},"openStreetMapId":"302026064","location":{"coordinates":[10.7663829,59.9367912],"type":"Point"},"addr:city":"Oslo","addr:country":"NO","addr:housenumber":"68","addr:postcode":"0477","addr:street":"Vogts gate","amenity":"cafe","cuisine":"coffee_shop","email":"vogtsgate@bakerhansen.no","name":"Baker Hansen","opening_hours":"Mo-Fr 07:00-18:00; Sa 09:00-17:00","operator":"Baker Hansen","phone":"+47 22221874","shop":"bakery","smoking":"no","website":"http://www.bakerhansen.no/vogtsgate/","wheelchair":"no"}
{"_id":{"$oid":"5bc382ba6773a056d8303b8d"},"openStreetMapId":"302026073","location":{"coordinates":[10.7643877,59.9347825],"type":"Point"},"addr:city":"Oslo","addr:country":"NO","addr:housenumber":"50","addr:postcode":"0477","addr:street":"Vogts gate","amenity":"cafe","cuisine":"coffee_shop","name":"Kaffebrenneriet","opening_hours":"Mo-Fr 07:00-18:00; Sa-Su 09:00-17:00","operator":"Kaffebrenneriet","phone":"+47 95262670","website":"http://www.kaffebrenneriet.no/butikkene/butikkside/kaffebrenneriet_vogtsgate_50/","wifi":"no"}
{"_id":{"$oid":"5bc382bb6773a056d8303b8e"},"openStreetMapId":"428063059","location":{"coordinates":[10.6834023,59.920229],"type":"Point"},"addr:city":"Oslo","addr:country":"NO","addr:housenumber":"22","addr:postcode":"0278","addr:street":"Karenslyst Allé","amenity":"cafe","cuisine":"coffee_shop","name":"Kaffebrenneriet","opening_hours":"Mo-Fr 07:00-18:00; Sa-Su 09:00-17:00","operator":"Kaffebrenneriet","phone":"+47 22561324","website":"http://www.kaffebrenneriet.no/butikkene/butikkside/kaffebrenneriet_karenslyst_alle_22/","wheelchair":"yes"}
{"_id":{"$oid":"5bc382bb6773a056d8303b8f"},"openStreetMapId":"441565073","location":{"coordinates":[10.7403454,59.9119793],"type":"Point"},"addr:city":"Oslo","addr:country":"NO","addr:housenumber":"16","addr:postcode":"0158","addr:street":"Akersgata","amenity":"cafe","cuisine":"coffee_shop","name":"Kaffebrenneriet","opening_hours":"Mo-Fr 07:00-19:00; Sa 09:00-17:00","operator":"Kaffebrenneriet","phone":"+47 22416600","website":"http://www.kaffebrenneriet.no/butikkene/butikkside/kaffebrenneriet_akersgaten_16/"}
{"_id":{"$oid":"5bc382bb6773a056d8303b90"},"openStreetMapId":"499994680","location":{"coordinates":[10.7410928,59.9136189],"type":"Point"},"addr:city":"Oslo","addr:country":"NO","amenity":"cafe","cuisine":"coffee_shop","internet_access":"yes","name":"Stockfleth's"}
{"_id":{"$oid":"5bc382bb6773a056d8303b91"},"openStreetMapId":"499995086","location":{"coordinates":[10.7416618,59.9153836],"type":"Point"},"addr:city":"Oslo","addr:country":"NO","amenity":"cafe","cuisine":"coffee_shop","name":"Stockfleth's","wheelchair":"limited"}
{"_id":{"$oid":"5bc382bb6773a056d8303b92"},"openStreetMapId":"499995891","location":{"coordinates":[10.7556127,59.9233271],"type":"Point"},"addr:city":"Oslo","addr:country":"NO","addr:housenumber":"1","addr:postcode":"0552","addr:street":"Grüners gate","amenity":"cafe","cuisine":"coffee_shop","email":"brenneriet@timwendelboe.no","name":"Tim Wendelboe","opening_hours":"Mo-Fr 08:30-18:00; Sa-Su 11:00-17:00","phone":"+47 40004062","website":"http://timwendelboe.no","wheelchair":"no"}
{"_id":{"$oid":"5bc382bb6773a056d8303b93"},"openStreetMapId":"500193198","location":{"coordinates":[10.7465548,59.9104891],"type":"Point"},"amenity":"cafe","cuisine":"coffee_shop","name":"Stockfleths","wheelchair":"no"}
{"_id":{"$oid":"5bc382bb6773a056d8303b94"},"openStreetMapId":"521434665","location":{"coordinates":[10.6844701,59.9198156],"type":"Point"},"addr:city":"Oslo","addr:country":"NO","addr:housenumber":"16","addr:postcode":"0278","addr:street":"Karenslyst Allé","amenity":"cafe","cuisine":"coffee_shop","email":"sjolyst@bakerhansen.no","image":"http://www.bakerhansen.no/files/9812/8835/3389/IMG_2386.jpg","name":"Baker Hansen","opening_hours":"Mo-Fr 08:00-20:00; Sa 09:00-17:00","operator":"Baker Hansen","phone":"+47 22551493","shop":"bakery","smoking":"no","toilets:wheelchair":"no","website":"http://www.bakerhansen.no/sjolyst/","wheelchair":"yes"}
{"_id":{"$oid":"5bc382bb6773a056d8303b95"},"openStreetMapId":"571676204","location":{"coordinates":[10.7160046,59.9163298],"type":"Point"},"addr:city":"Oslo","addr:country":"NO","addr:housenumber":"8","addr:postcode":"0257","addr:street":"Skovveien","amenity":"cafe","cuisine":"coffee_shop","name":"Kaffebrenneriet","opening_hours":"Mo-Fr 07:00-19:00; Sa-Su 09:00-17:00","phone":"+47 95262662","website":"http://www.kaffebrenneriet.no/butikkene/butikkside/kaffebrenneriet_skovveien_8/"}
{"_id":{"$oid":"5bc382bb6773a056d8303b96"},"openStreetMapId":"615209023","location":{"coordinates":[10.7592257,59.9280093],"type":"Point"},"addr:city":"Oslo","addr:country":"NO","addr:housenumber":"18","addr:postcode":"0555","addr:street":"Thorvald Meyers gate","amenity":"cafe","cuisine":"coffee_shop","email":"post@srw.no","name":"Supreme Roastworks","opening_hours":"Mo-Fr 08:00-16:00; Sa 10:00-16:00","phone":"+47 227114202","website":"http://www.supremeroastworks.no/"}
{"_id":{"$oid":"5bc382bb6773a056d8303b97"},"openStreetMapId":"864946063","location":{"coordinates":[10.7419761,59.9140678],"type":"Point"},"addr:city":"Oslo","addr:country":"NO","addr:housenumber":"45","addr:postcode":"0158","addr:street":"Akersgata","amenity":"cafe","cuisine":"coffee_shop","name":"Kaffebrenneriet","opening_hours":"Mo-Fr 07:00-19:00; Sa 09:00-17:00","operator":"Kaffebrenneriet","phone":"+47 24201728","website":"http://www.kaffebrenneriet.no/butikkene/butikkside/kaffebrenneriet_akersgaten_45/"}
{"_id":{"$oid":"5bc382bc6773a056d8303b98"},"openStreetMapId":"973873267","location":{"coordinates":[10.7281008,59.9206046],"type":"Point"},"addr:city":"Oslo","addr:country":"NO","addr:housenumber":"25","addr:postcode":"0350","addr:street":"Parkveien","amenity":"cafe","cuisine":"coffee_shop","name":"Kaffebrenneriet","opening_hours":"Mo-Fr 07:00-18:00; Sa-Su 09:00-17:00","phone":"+47 22461160","website":"http://www.kaffebrenneriet.no/butikkene/butikkside/kaffebrenneriet_parkveien_25","wheelchair":"limited"}
{"_id":{"$oid":"5bc382bc6773a056d8303b99"},"openStreetMapId":"1221546285","location":{"coordinates":[10.7603124,59.9123587],"type":"Point"},"amenity":"cafe","cuisine":"coffee_shop","name":"Evita 1","source":"knowledge","wheelchair":"limited"}
{"_id":{"$oid":"5bc382bc6773a056d8303b9a"},"openStreetMapId":"1419271599","location":{"coordinates":[10.7337176,59.9327109],"type":"Point"},"addr:city":"Oslo","addr:country":"NO","addr:housenumber":"95","addr:postcode":"0359","addr:street":"Ullevålsveien","amenity":"cafe","cuisine":"coffee_shop","email":"adamstuen@bakerhansen.no","name":"Baker Hansen","opening_hours":"Mo-Fr 07:00-18:00; Sa 09:00-17:00; Su 10:00-15:00","operator":"Baker Hansen","phone":"+47 22468173","shop":"bakery","website":"http://www.bakerhansen.no/adamstuen/","wheelchair":"no"}
{"_id":{"$oid":"5bc382bc6773a056d8303b9b"},"openStreetMapId":"1437766247","location":{"coordinates":[10.7297012,59.9111602],"type":"Point"},"addr:city":"Oslo","addr:country":"NO","addr:housenumber":"2","addr:postcode":"0250","addr:street":"Brynjulf Bulls plass","amenity":"cafe","cuisine":"coffee_shop","name":"Kaffebrenneriet","opening_hours":"Mo-Fr 07:00-18:00; Sa-Su 09:00-17:00","operator":"Kaffebrenneriet","phone":"+47 24200823","website":"http://www.kaffebrenneriet.no/butikkene/butikkside/kaffebrenneriet_vestbanen/","wheelchair":"yes"}
{"_id":{"$oid":"5bc382bc6773a056d8303b9c"},"openStreetMapId":"1769606912","location":{"coordinates":[10.7405582,59.9178789],"type":"Point"},"addr:city":"Oslo","addr:country":"NO","addr:housenumber":"3","addr:postcode":"0165","addr:street":"St Olavs plass","amenity":"cafe","blog":"http://blingsoslo.wordpress.com/","contact:email":"anders@blings.no","contact:facebook":"http://www.facebook.com/blingssiden","contact:phone":"+47 22205270","contact:twitter":"@BlingsOslo","contact:website":"http://www.apentbakeri.no/blings/","cuisine":"coffee_shop","name":"Blings","note":"Menu available at http://www.apentbakeri.no/blings/meny/","opening_hours":"Mo-Fr 07:00-17:00; Sa 09:00-16:00","operator":"Åpent Bakeri"}
{"_id":{"$oid":"5bc382bc6773a056d8303b9d"},"openStreetMapId":"1769606915","location":{"coordinates":[10.7404134,59.916794],"type":"Point"},"amenity":"cafe","cuisine":"coffee_shop","name":"Fuglen"}
{"_id":{"$oid":"5bc382bc6773a056d8303b9e"},"openStreetMapId":"1832533880","location":{"coordinates":[10.7934818,59.9307203],"type":"Point"},"amenity":"cafe","cuisine":"coffee_shop","name":"Norð Løren","opening_hours":"Mo-Fr 07:00-18:00, Sa,Su 09:00-18:00","toilets:wheelchair":"yes","wheelchair":"yes","wifi":"yes"}
{"_id":{"$oid":"5bc382bc6773a056d8303b9f"},"openStreetMapId":"1883613666","location":{"coordinates":[10.731555,59.9273886],"type":"Point"},"addr:city":"Oslo","addr:country":"NO","addr:housenumber":"35b","addr:postcode":"0354","addr:street":"Thereses gate","amenity":"cafe","cuisine":"coffee_shop","name":"Kaffebrenneriet","opening_hours":"Mo-Fr 07:00-19:00; Sa-Su 09:00-17:00","phone":"+47 24200107","website":"http://www.kaffebrenneriet.no/butikkene/butikkside/kaffebrenneriet_theresesgate_35/"}
{"_id":{"$oid":"5bc382bc6773a056d8303ba0"},"openStreetMapId":"1883637893","location":{"coordinates":[10.7398908,59.9233316],"type":"Point"},"addr:city":"Oslo","addr:country":"NO","addr:housenumber":"39","addr:postcode":"0171","addr:street":"Ullevålsveien","amenity":"cafe","cuisine":"coffee_shop","name":"Kaffebrenneriet","opening_hours":"Mo-Fr 07:00-19:00; Sa-Su 09:00-17:00","phone":"+47 22463505","website":"http://www.kaffebrenneriet.no/butikkene/butikkside/kaffebrenneriet_ullevalsveien_39/"}
{"_id":{"$oid":"5bc382bc6773a056d8303ba1"},"openStreetMapId":"1883652177","location":{"coordinates":[10.7091252,59.9193785],"type":"Point"},"addr:city":"Oslo","addr:country":"NO","addr:housenumber":"2","addr:postcode":"0263","addr:street":"Løvenskiolds gate","amenity":"cafe","cuisine":"coffee_shop","name":"Kaffebrenneriet","opening_hours":"Mo-Fr 07:00-19:00; Sa-Su 09:00-17:00","operator":"Kaffebrenneriet","phone":"+47 22559869","website":"http://www.kaffebrenneriet.no/butikkene/butikkside/kaffebrenneriet_loevenskioldsgate_2/"}
{"_id":{"$oid":"5bc382bd6773a056d8303ba2"},"openStreetMapId":"1883660592","location":{"coordinates":[10.7482769,59.9128682],"type":"Point"},"addr:city":"Oslo","addr:country":"NO","addr:housenumber":"2","addr:postcode":"0155","addr:street":"Storgata","amenity":"cafe","cuisine":"coffee_shop","name":"Kaffebrenneriet","opening_hours":"Mo-Fr 07:00-19:00; Sa 09:00-17:00","operator":"Kaffebrenneriet","phone":"+47 22420131","website":"http://www.kaffebrenneriet.no/butikkene/butikkside/kaffebrenneriet_storgaten_2/"}
{"_id":{"$oid":"5bc382bd6773a056d8303ba3"},"openStreetMapId":"1883670728","location":{"coordinates":[10.7184133,59.9283064],"type":"Point"},"addr:city":"Oslo","addr:country":"NO","addr:housenumber":"3","addr:postcode":"0366","addr:street":"Valkyriegata","amenity":"cafe","cuisine":"coffee_shop","name":"Kaffebrenneriet","opening_hours":"Mo-Fr 07:00-19:00; Sa-Su 09:00-17:00","operator":"Kaffebrenneriet","phone":"+47 22565584","website":"http://www.kaffebrenneriet.no/butikkene/butikkside/kaffebrenneriet_valkyriegata_3/","wheelchair":"no"}
{"_id":{"$oid":"5bc382bd6773a056d8303ba4"},"openStreetMapId":"1883688028","location":{"coordinates":[10.7255271,59.9097104],"type":"Point"},"addr:city":"Oslo","addr:country":"NO","addr:housenumber":"7","addr:postcode":"0250","addr:street":"Fjordalléen","amenity":"cafe","cuisine":"coffee_shop","name":"Kaffebrenneriet","opening_hours":"Mo-Fr 07:00-19:00; Sa-Su 09:00-17:00","operator":"Kaffebrenneriet","phone":"+47 22836040","website":"http://www.kaffebrenneriet.no/butikkene/butikkside/kaffebrenneriet_fjordalleen_7/","wheelchair":"yes"}
{"_id":{"$oid":"5bc382bd6773a056d8303ba5"},"openStreetMapId":"1883730293","location":{"coordinates":[10.7324477,59.9140686],"type":"Point"},"addr:city":"Oslo","addr:country":"NO","addr:housenumber":"28","addr:postcode":"0161","addr:street":"Stortingsgata","amenity":"cafe","cuisine":"coffee_shop","name":"Kaffebrenneriet","opening_hours":"Mo-Fr 07:00-21:30; Sa 09:30-21:30; Su 10:30-21:30","operator":"Kaffebrenneriet","phone":"+47 23697797","toilets:wheelchair":"no","website":"http://www.kaffebrenneriet.no/butikkene/butikkside/kaffebrenneriet_saga_kino/","wheelchair":"yes"}
{"_id":{"$oid":"5bc382bd6773a056d8303ba6"},"openStreetMapId":"1883738235","location":{"coordinates":[10.7377208,59.9156914],"type":"Point"},"addr:city":"Oslo","addr:country":"NO","addr:housenumber":"18","addr:postcode":"0164","addr:street":"Universitetsgata","amenity":"cafe","cuisine":"coffee_shop","name":"Kaffebrenneriet","opening_hours":"Mo-Fr 07:00-19:00; Sa 09:00-17:00; Su 11:00-17:00","phone":"+47 95262677","website":"http://www.kaffebrenneriet.no/butikkene/butikkside/kaffebrenneriet_universitetsgata_18/","wheelchair":"yes"}
{"_id":{"$oid":"5bc382bd6773a056d8303ba7"},"openStreetMapId":"1883743934","location":{"coordinates":[10.7523713,59.9373634],"type":"Point"},"addr:city":"Oslo","addr:country":"NO","addr:housenumber":"18","addr:postcode":"0463","addr:street":"Dannevigsveien","amenity":"cafe","cuisine":"coffee_shop","name":"Kaffebrenneriet","opening_hours":"Mo-Fr 07:00-19:00; Sa-Su 09:00-17:00","operator":"Kaffebrenneriet","phone":"+47 95262678","website":"http://www.kaffebrenneriet.no/butikkene/butikkside/kaffebrenneriet_dannevigsveien_18/","wheelchair":"no"}
{"_id":{"$oid":"5bc382bd6773a056d8303ba8"},"openStreetMapId":"1883751170","location":{"coordinates":[10.7478383,59.9116466],"type":"Point"},"addr:city":"Oslo","addr:country":"NO","addr:housenumber":"7","addr:postcode":"0154","addr:street":"Karl Johans gate","amenity":"cafe","cuisine":"coffee_shop","name":"Kaffebrenneriet","opening_hours":"Mo-Fr 07:00-19:00; Sa 09:00-18:00","operator":"Kaffebrenneriet","phone":"+47 95262679","website":"http://www.kaffebrenneriet.no/butikkene/butikkside/Kafffebrenneriet_karl_johansgate_7/"}
{"_id":{"$oid":"5bc382bd6773a056d8303ba9"},"openStreetMapId":"1883804866","location":{"coordinates":[10.7588599,59.9270717],"type":"Point"},"addr:city":"Oslo","addr:country":"NO","addr:housenumber":"25A","addr:postcode":"0555","addr:street":"Thorvald Meyers gate","amenity":"cafe","cuisine":"coffee_shop","name":"Kaffebrenneriet","opening_hours":"Mo-Fr 07:00-19:00; Sa-Su 09:00-17:00","operator":"Kaffebrenneriet","phone":"+47 95262683","website":"http://www.kaffebrenneriet.no/butikkene/butikkside/thorvald_meyersgate_25a_-_birkelunden/","wheelchair":"no"}
{"_id":{"$oid":"5bc382bd6773a056d8303baa"},"openStreetMapId":"1883827735","location":{"coordinates":[10.7669601,59.9115645],"type":"Point"},"addr:city":"Oslo","addr:country":"NO","addr:housenumber":"32","addr:postcode":"0190","addr:street":"Grønlandsleiret","amenity":"cafe","cuisine":"coffee_shop","name":"Kaffebrenneriet","opening_hours":"Mo-Fr 07:00-19:00; Sa-Su 09:00-17:00","operator":"Kaffebrenneriet","phone":"+47 95262684","website":"http://www.kaffebrenneriet.no/butikkene/butikkside/grnlandsleiret_32/"}
{"_id":{"$oid":"5bc382be6773a056d8303bab"},"openStreetMapId":"1883840492","location":{"coordinates":[10.7575326,59.9187511],"type":"Point"},"addr:city":"Oslo","addr:country":"NO","addr:housenumber":"60","addr:postcode":"0550","addr:street":"Markveien","amenity":"cafe","construction":"yes","cuisine":"coffee_shop","name":"Kaffebrenneriet","operator":"Kaffebrenneriet","website":"http://www.kaffebrenneriet.no/butikkene/butikkside/markveien/"}
{"_id":{"$oid":"5bc382be6773a056d8303bac"},"openStreetMapId":"1883877606","location":{"coordinates":[10.7461445,59.9100164],"type":"Point"},"addr:city":"Oslo","addr:country":"NO","addr:housenumber":"11","addr:postcode":"0152","addr:street":"Tollbugata","amenity":"cafe","cuisine":"coffee_shop","email":"post@pascal.no","name":"Pascal kaffebar","opening_hours":"Mo-Fr 07:30-17:00; Sa 10:00-17:00","operator":"Pascal","website":"http://pascal.no/serveringssteder/tollbugata-11-kaffebar/"}
{"_id":{"$oid":"5bc382be6773a056d8303bad"},"openStreetMapId":"1884241680","location":{"coordinates":[10.7329595,59.9137666],"type":"Point"},"addr:city":"Oslo","addr:country":"NO","addr:housenumber":"26","addr:postcode":"0161","addr:street":"Stortingsgata","amenity":"cafe","cuisine":"coffee_shop","name":"Espresso House","opening_hours":"Mo-Fr 07:00-23:00; Sa 08:00-23:00; Su 09:00-23:00","operator":"Espresso House","phone":"+47 21064805","website":"http://www.espressohouse.com"}
{"_id":{"$oid":"5bc382be6773a056d8303bae"},"openStreetMapId":"1886537682","location":{"coordinates":[10.7356626,59.9115736],"type":"Point"},"addr:city":"Oslo","addr:country":"NO","addr:housenumber":"12","addr:postcode":"0160","addr:street":"Tordenskiolds gate","amenity":"cafe","cuisine":"coffee_shop","email":"radhuset@bakerhansen.no","name":"Baker Hansen","opening_hours":"Mo-Fr 06:30-17:00; Sa 12:00-16:00","operator":"Baker Hansen","phone":"+47 22416365","shop":"bakery","website":"http://www.bakerhansen.no/radhuset/"}
{"_id":{"$oid":"5bc382be6773a056d8303baf"},"openStreetMapId":"1886544205","location":{"coordinates":[10.7348848,59.9137599],"type":"Point"},"addr:city":"Oslo","addr:country":"NO","addr:housenumber":"20","addr:postcode":"0161","addr:street":"Stortingsgata","amenity":"cafe","cuisine":"coffee_shop","email":"stortingsgaten@bakerhansen.no","name":"Baker Hansen","opening_hours":"Mo-Fr 06:00-18:00; Sa 08:00-17:00; Su 10:00-17:00","operator":"Baker Hansen","phone":"+47 22426166","shop":"bakery","website":"http://www.bakerhansen.no/stortingsgaten/"}
{"_id":{"$oid":"5bc382be6773a056d8303bb0"},"openStreetMapId":"1886546756","location":{"coordinates":[10.7290554,59.9142479],"type":"Point"},"addr:city":"Oslo","addr:country":"NO","addr:housenumber":"3","addr:postcode":"0251","addr:street":"Ruseløkkveien","amenity":"cafe","cuisine":"coffee_shop","email":"vika@bakerhansen.no","name":"Baker Hansen","opening_hours":"Mo-Fr 06:00-18:00; Sa 09:00-16:00","operator":"Baker Hansen","phone":"+47 22832166","shop":"bakery","website":"http://www.bakerhansen.no/vika/"}
{"_id":{"$oid":"5bc382be6773a056d8303bb1"},"openStreetMapId":"1886559141","location":{"coordinates":[10.7181878,59.9278782],"type":"Point"},"addr:city":"Oslo","addr:country":"NO","addr:housenumber":"54","addr:postcode":"0366","addr:street":"Bogstadveien","amenity":"cafe","cuisine":"coffee_shop","email":"bvn@bakerhansen.no","name":"Baker Hansen","opening_hours":"Mo-Fr 07:00-18:00; Sa 09:00-18:00; Su 11:00-17:00","operator":"Baker Hansen","phone":"+47 23201620","shop":"bakery"}
{"_id":{"$oid":"5bc382be6773a056d8303bb2"},"openStreetMapId":"1886562573","location":{"coordinates":[10.6355551,59.9177513],"type":"Point"},"addr:city":"Oslo","addr:country":"NO","addr:housenumber":"16","addr:postcode":"0283","addr:street":"Lilleakerveien","amenity":"cafe","cuisine":"coffee_shop","email":"ccvest@bakerhansen.no","name":"Baker Hansen","opening_hours":"Mo-Fr 10:00-20:00; Sa 09:00-18:00","operator":"Baker Hansen","phone":"+47 22731856","shop":"bakery","website":"http://www.bakerhansen.no/ccvest/","wheelchair":"yes"}
{"_id":{"$oid":"5bc382be6773a056d8303bb3"},"openStreetMapId":"1915658835","location":{"coordinates":[10.7926563,59.923603],"type":"Point"},"addr:city":"Oslo","addr:country":"NO","addr:housenumber":"50","addr:postcode":"0579","addr:street":"Grenseveien","amenity":"cafe","cuisine":"coffee_shop","email":"hasletorg@bakerhansen.no","image":"http://www.bakerhansen.no/files/7212/8816/8374/IMG_1594.jpg","name":"Baker Hansen","opening_hours":"Mo-Fr 07:00-20:00; Sa 09:00-18:00; Su 10:00-17:00","operator":"Baker Hansen","phone":"+47 23377691","shop":"bakery","smoking":"no","website":"http://www.bakerhansen.no/hasletorg/","wheelchair":"yes"}
{"_id":{"$oid":"5bc382bf6773a056d8303bb4"},"openStreetMapId":"1915676796","location":{"coordinates":[10.7164449,59.9295378],"type":"Point"},"addr:city":"Oslo","addr:country":"NO","addr:housenumber":"15","addr:postcode":"0366","addr:street":"Valkyriegata","amenity":"cafe","cuisine":"coffee_shop","email":"majorstukrysset@bakerhansen.no","name":"Baker Hansen","opening_hours":"Mo-Fr 07:00-19:00; Sa 09:00-17:00; Su 12:00-17:00","operator":"Baker Hansen","phone":"+47 22699969","shop":"bakery","smoking":"no","website":"http://www.bakerhansen.no/majorstukrysset/"}
{"_id":{"$oid":"5bc382bf6773a056d8303bb5"},"openStreetMapId":"1915743891","location":{"coordinates":[10.7659032,59.9493945],"type":"Point"},"addr:city":"Oslo","addr:country":"NO","addr:housenumber":"33","addr:postcode":"0484","addr:street":"Nydalsveien","amenity":"cafe","cuisine":"coffee_shop","email":"nydalen@bakerhansen.no","name":"Baker Hansen","opening_hours":"Mo-Fr 07:00-18:00; Sa 10:00-17:00; Su 11:00-17:00","operator":"Baker Hansen","phone":"+47 22234824","shop":"bakery","smoking":"no","website":"http://www.bakerhansen.no/nydalen/"}
{"_id":{"$oid":"5bc382bf6773a056d8303bb6"},"openStreetMapId":"1915783774","location":{"coordinates":[10.7265316,59.922892],"type":"Point"},"addr:city":"Oslo","addr:housenumber":"35","addr:postcode":"0352","addr:street":"Hegdehaugsveien","amenity":"cafe","cuisine":"coffee_shop","email":"oscarsgate@bakerhansen.no","image":"http://www.bakerhansen.no/files/2512/8774/4140/IMG_1444.jpg","name":"Baker Hansen","opening_hours":"Mo-Fr 08:00-17:00; Sa 10:00-17:00","operator":"Baker Hansen","phone":"+47 22694271","shop":"bakery","smoking":"no","website":"http://www.bakerhansen.no/oscarsgate/"}
{"_id":{"$oid":"5bc382bf6773a056d8303bb7"},"openStreetMapId":"1915801333","location":{"coordinates":[10.6438491,59.948265],"type":"Point"},"addr:city":"Oslo","addr:country":"NO","addr:housenumber":"207","addr:postcode":"0751","addr:street":"Vækerøveien","amenity":"cafe","cuisine":"coffee_shop","email":"roa@bakerhansen.no","image":"http://www.bakerhansen.no/files/3312/8835/1838/IMG_1013.jpg","name":"Baker Hansen","opening_hours":"Mo-Fr 08:00-20:00; Sa 09:00-18:00; Su 10:00-16:00","operator":"Baker Hansen","phone":"+47 22731897","shop":"bakery","smoking":"no","website":"http://www.bakerhansen.no/roa/"}
{"_id":{"$oid":"5bc382bf6773a056d8303bb8"},"openStreetMapId":"1915825778","location":{"coordinates":[10.7094156,59.9127146],"type":"Point"},"addr:city":"Oslo","addr:country":"NO","addr:housenumber":"62","addr:postcode":"0271","addr:street":"Drammensveien","amenity":"cafe","cuisine":"coffee_shop","email":"skillebekk@bakerhansen.no","image":"http://www.bakerhansen.no/files/8912/8835/3682/IMG_1896.jpg","name":"Baker Hansen","opening_hours":"Mo-Fr 07:30-18:00; Sa 09:00-15:00","operator":"Baker Hansen","phone":"+47 22440854","shop":"bakery","smoking":"no","website":"http://www.bakerhansen.no/skillebekk/"}
{"_id":{"$oid":"5bc382bf6773a056d8303bb9"},"openStreetMapId":"1915830429","location":{"coordinates":[10.7395685,59.924174],"type":"Point"},"addr:city":"Oslo","addr:country":"NO","addr:housenumber":"45","addr:postcode":"0171","addr:street":"Ullevålsveien","amenity":"cafe","cuisine":"coffee_shop","email":"st.hanshaugen@bakerhansen.no","image":"http://www.bakerhansen.no/files/3112/8626/4903/IMG_1162.JPG","name":"Baker Hansen","opening_hours":"Mo-Fr 07:00-19:00; Sa 08:00-18:00; Su 09:00-18:00","operator":"Baker Hansen","phone":"+47 22690900","shop":"bakery","smoking":"no","website":"http://www.bakerhansen.no/sthanshaugen/"}
{"_id":{"$oid":"5bc382bf6773a056d8303bba"},"openStreetMapId":"1915856269","location":{"coordinates":[10.7745355,59.9469796],"type":"Point"},"addr:city":"Oslo","addr:country":"NO","addr:housenumber":"7","addr:postcode":"0485","addr:street":"Vitaminveien","amenity":"cafe","cuisine":"coffee_shop","email":"storo@bakerhansen.no","image":"http://www.bakerhansen.no/files/1113/4192/2280/Sittegruppe.jpg","internet_access":"wlan","internet_access:fee":"yes","level":"0","name":"Baker Hansen","opening_hours":"Mo-Fr 10:00-21:00; Sa 09:00-18:00; Su 11:00-17:00","operator":"Baker Hansen","phone":"+47 22222560","shop":"bakery","smoking":"no","website":"http://www.bakerhansen.no/storo/"}
{"_id":{"$oid":"5bc382bf6773a056d8303bbb"},"openStreetMapId":"1915868322","location":{"coordinates":[10.7336972,59.9496933],"type":"Point"},"addr:city":"Oslo","addr:country":"NO","addr:housenumber":"75C","addr:postcode":"0855","addr:street":"Sognsveien","amenity":"cafe","cuisine":"coffee_shop","email":"stadion@bakerhansen.no","name":"Baker Hansen","opening_hours":"Mo-Fr 08:00-19:00; Sa 09:00-17:00","operator":"Baker Hansen","phone":"+47 22230855","shop":"bakery","smoking":"no","website":"http://www.bakerhansen.no/ullevalstadion/"}
{"_id":{"$oid":"5bc382bf6773a056d8303bbc"},"openStreetMapId":"1934896151","location":{"coordinates":[10.7114306,59.9294334],"type":"Point"},"addr:city":"Oslo","addr:country":"NO","addr:housenumber":"9","addr:postcode":"0368","addr:street":"Essendrops gate","amenity":"cafe","cuisine":"coffee_shop","name":"Wayne's Coffee","opening_hours":"Mo-Fr 06:30-21:00; Sa-Su 09:00-21:00","phone":"+47 21668147","website":"http://www.waynescoffee.no/kafeer/oslo/kafe-colosseum.aspx"}
{"_id":{"$oid":"5bc382c06773a056d8303bbd"},"openStreetMapId":"1934908544","location":{"coordinates":[10.7315633,59.9231507],"type":"Point"},"addr:city":"Oslo","addr:country":"NO","addr:housenumber":"57","addr:postcode":"0350","addr:street":"Pilestredet","amenity":"cafe","cuisine":"coffee_shop","name":"Wayne's Coffee","opening_hours":"Mo-Fr 06:30-20:00; Sa-Su 09:00-18:00","operator":"Wayne's Coffee","phone":"+47 21447630","website":"http://www.waynescoffee.no/kafeer/oslo/kafe-pilestredet.aspx"}
{"_id":{"$oid":"5bc382c06773a056d8303bbe"},"openStreetMapId":"1935110001","location":{"coordinates":[10.7195168,59.9146927],"type":"Point"},"addr:housenumber":"90","addr:postcode":"0255","addr:street":"Henrik Ibsens gate","amenity":"cafe","cuisine":"coffee_shop","name":"Wayne's Coffee","opening_hours":"Mo-Fr 06:30-21:00; Sa-Su 09:00-18:00","operator":"Wayne's Coffee","phone":"+47 21666763","toilets:wheelchair":"no","website":"http://www.waynescoffee.no/kafeer/oslo/kafe-solli-plass.aspx","wheelchair":"yes"}
{"_id":{"$oid":"5bc382c06773a056d8303bbf"},"openStreetMapId":"1944590110","location":{"coordinates":[10.7173576,59.9290339],"type":"Point"},"addr:city":"Oslo","addr:country":"NO","addr:housenumber":"9","addr:postcode":"0366","addr:street":"Valkyriegata","amenity":"cafe","cuisine":"coffee_shop","name":"Espresso House"}
{"_id":{"$oid":"5bc382c06773a056d8303bc0"},"openStreetMapId":"1948285104","location":{"coordinates":[10.7297983,59.9142278],"type":"Point"},"addr:city":"Oslo","addr:country":"NO","addr:housenumber":"10","addr:postcode":"0161","addr:street":"Haakon VII's gate","amenity":"cafe","cuisine":"coffee_shop","name":"Wayne's Coffee","opening_hours":"Mo-Fr 06:30-21:00; Sa-Su 09:00-18:00","operator":"Wayne's Coffee","phone":"+47 21668146","website":"http://vikaterrassen.no/butikkoversikt/wayne%C2%B4s-coffee"}
{"_id":{"$oid":"5bc382c06773a056d8303bc1"},"openStreetMapId":"1960942706","location":{"coordinates":[10.7231808,59.9082645],"type":"Point"},"addr:city":"Oslo","addr:country":"NO","addr:housenumber":"4","addr:postcode":"0252","addr:street":"Lille stranden","amenity":"cafe","cuisine":"coffee_shop","name":"Wayne's Coffee","opening_hours":"Mo-Fr 07:30-20:00; Sa-Su 09:00-18:00","phone":"+47 21668266","toilets:wheelchair":"yes","website":"http://www.waynescoffee.no/kafeer/oslo/kafe-tjuvholmen.aspx","wheelchair":"limited"}
{"_id":{"$oid":"5bc382c06773a056d8303bc2"},"openStreetMapId":"1975696959","location":{"coordinates":[10.7362783,59.914274],"type":"Point"},"addr:housenumber":"24","addr:postcode":"0162","addr:street":"Karl Johans gate","amenity":"cafe","cuisine":"coffee_shop","name":"Kaffebrenneriet","opening_hours":"Mo-Fr 07:00-19:00; Sa 09:00-17:00; Su 11:00-17:00","operator":"Kaffebrenneriet","phone":"+47 95262680","website":"http://www.kaffebrenneriet.no/butikkene/butikkside/kaffebrenneriet_karl_johans_gate_24_-_spikersuppa/","wheelchair":"yes"}
{"_id":{"$oid":"5bc382c06773a056d8303bc3"},"openStreetMapId":"1976677755","location":{"coordinates":[10.7342747,59.9328994],"type":"Point"},"amenity":"cafe","cuisine":"coffee_shop","name":"Kaffekoppkafe","outdoor_seating":"yes","smoking":"outside","takeaway":"yes"}
{"_id":{"$oid":"5bc382c06773a056d8303bc4"},"openStreetMapId":"1999461639","location":{"coordinates":[10.7413749,59.9143425],"type":"Point"},"addr:city":"Oslo","addr:country":"NO","addr:housenumber":"20","addr:postcode":"0180","addr:street":"Grensen","amenity":"cafe","cuisine":"coffee_shop","name":"Wayne's Coffee","operator":"Wayne's Coffee","website":"http://www.waynescoffee.no/"}
{"_id":{"$oid":"5bc382c06773a056d8303bc5"},"openStreetMapId":"1999466123","location":{"coordinates":[10.74145,59.9133233],"type":"Point"},"addr:city":"Oslo","addr:country":"NO","addr:housenumber":"35","addr:postcode":"0158","addr:street":"Akersgata","amenity":"cafe","cuisine":"coffee_shop","name":"Wayne's Coffee","opening_hours":"Mo-Fr 06:30-20:00; Sa-Su 09:00-18:00","operator":"Wayne's Coffee","phone":"+47 21445190","website":"http://www.waynescoffee.no/kafeer/oslo/kafe-egertorget.aspx","wheelchair":"limited"}
{"_id":{"$oid":"5bc382c06773a056d8303bc6"},"openStreetMapId":"2004612610","location":{"coordinates":[10.6942671,59.9507635],"type":"Point"},"addr:city":"Oslo","addr:country":"NO","addr:housenumber":"41","addr:postcode":"0776","addr:street":"Risalléen","amenity":"cafe","cuisine":"coffee_shop","email":"kaffeco@kaffeco.no","facebook":"https://www.facebook.com/KaffeOgCo","name":"Kaffe \u0026 co","opening_hours":"Mo-Fr 07:00-18:00; Sa 09:00-16:00; Su 10:00-16:00","outdoor_seating":"yes","phone":"+47 22491105","smoking":"outside","takeaway":"yes"}
{"_id":{"$oid":"5bc382c16773a056d8303bc7"},"openStreetMapId":"2069813324","location":{"coordinates":[10.7185953,59.9193495],"type":"Point"},"amenity":"cafe","cuisine":"coffee_shop","name":"Mocca kaffebar \u0026 brenneri AS","phone":"22 55 55 18"}
{"_id":{"$oid":"5bc382c16773a056d8303bc8"},"openStreetMapId":"2276017071","location":{"coordinates":[10.7210089,59.9072696],"type":"Point"},"addr:city":"Oslo","addr:country":"NO","addr:housenumber":"15","addr:postcode":"0252","addr:street":"Tjuvholmen Allé","cuisine":"coffee_shop","facebook":"http://www.facebook.com/pages/Bergshaven-bakeri-og-konditori-as/111905355506397","name":"Bergshaven","opening_hours":"Mo-We 07:00-18:00; Th 07:00-19:00; Fr 07:00-21:00; Sa-Su 10:00-18:00","phone":"+47 37040446","shop":"bakery","toilets:wheelchair":"yes","website":"http://www.bergshaven.com/","wheelchair":"yes"}
{"_id":{"$oid":"5bc382c16773a056d8303bc9"},"openStreetMapId":"2278256452","location":{"coordinates":[10.7517188,59.9374779],"type":"Point"},"addr:street":"Stockflethsgate 60","amenity":"cafe","cuisine":"coffee_shop","name":"Kaffe Gram","source":"http://www.kaffegram.no/","wifi":"free"}
{"_id":{"$oid":"5bc382c16773a056d8303bca"},"openStreetMapId":"2296403819","location":{"coordinates":[10.7526916,59.9025528],"type":"Point"},"addr:housenumber":"103","addr:postcode":"0150","addr:street":"Sørengkaia","amenity":"cafe","cuisine":"coffee_shop","name":"Evita Espressobar Sørenga","wifi":"free"}
{"_id":{"$oid":"5bc382c16773a056d8303bcb"},"openStreetMapId":"2616073833","location":{"coordinates":[10.7436842,59.9181441],"type":"Point"},"addr:country":"NO","addr:housenumber":"1","addr:street":"Ullevålsveien","amenity":"cafe","cuisine":"coffee_shop","name":"Dagny's"}
{"_id":{"$oid":"5bc382c16773a056d8303bcc"},"openStreetMapId":"2617758178","location":{"coordinates":[10.7407014,59.9236703],"type":"Point"},"amenity":"cafe","cuisine":"coffee_shop","internet_access":"wlan","name":"Espresso House, St. Hanshaugen"}
{"_id":{"$oid":"5bc382c16773a056d8303bcd"},"openStreetMapId":"2637042963","location":{"coordinates":[10.735028,59.92002],"type":"Point"},"addr:city":"Oslo","addr:housenumber":"39D","addr:postcode":"0166","addr:street":"Pilestredet","amenity":"cafe","cuisine":"coffee_shop","name":"Espresso House","smoking":"no","takeaway":"yes"}
{"_id":{"$oid":"5bc382c16773a056d8303bce"},"openStreetMapId":"2689891213","location":{"coordinates":[10.7038408,59.9424069],"type":"Point"},"amenity":"cafe","cuisine":"coffee_shop","name":"Baker Hansen","shop":"bakery"}
{"_id":{"$oid":"5bc382c16773a056d8303bcf"},"openStreetMapId":"2725126143","location":{"coordinates":[10.7519512,59.9142433],"type":"Point"},"addr:city":"Oslo","addr:country":"NO","addr:housenumber":"2","addr:postcode":"0181","addr:street":"Hammersborggata","amenity":"cafe","cuisine":"coffee_shop","name":"Wayne's coffee","opening_hours":"Mo-Fr 06:30-20:00; Sa-Su 10:00-18:00","phone":"+47 21 44 51 99","website":"http://www.waynescoffee.no/kafeer/oslo/kafe-storgata.aspx"}
{"_id":{"$oid":"5bc382c16773a056d8303bd0"},"openStreetMapId":"2919371562","location":{"coordinates":[10.757535,59.9211559],"type":"Point"},"amenity":"cafe","cuisine":"coffee_shop","name":"Espresso House","toilets:wheelchair":"yes","wheelchair":"yes"}
{"_id":{"$oid":"5bc382c16773a056d8303bd1"},"openStreetMapId":"2919371563","location":{"coordinates":[10.7570683,59.9221345],"type":"Point"},"amenity":"cafe","cuisine":"coffee_shop","name":"Retrolykke"}
{"_id":{"$oid":"5bc382c16773a056d8303bd2"},"openStreetMapId":"3040987689","location":{"coordinates":[10.7575615,59.930802],"type":"Point"},"amenity":"cafe","cuisine":"coffee_shop","internet_access":"no","name":"Hønselouisas Hus","smoking":"outside","wheelchair":"no"}
{"_id":{"$oid":"5bc382c16773a056d8303bd3"},"openStreetMapId":"3090736998","location":{"coordinates":[10.7412136,59.9136313],"type":"Point"},"amenity":"cafe","cuisine":"coffee_shop","name":"Baker Hansen"}
{"_id":{"$oid":"5bc382c16773a056d8303bd4"},"openStreetMapId":"3125995604","location":{"coordinates":[10.7352945,59.9380956],"type":"Point"},"amenity":"cafe","cuisine":"coffee_shop","internet_access":"wlan","name":"Espresso House"}
{"_id":{"$oid":"5bc382c16773a056d8303bd5"},"openStreetMapId":"3132098801","location":{"coordinates":[10.7529968,59.9112807],"type":"Point"},"amenity":"cafe","cuisine":"coffee_shop","level":"3","name":"Starbucks Coffee"}
{"_id":{"$oid":"5bc382c16773a056d8303bd6"},"openStreetMapId":"3366591666","location":{"coordinates":[10.7589715,59.9239649],"type":"Point"},"addr:country":"NO","addr:housenumber":"49","addr:street":"Thorvald Meyers gate","amenity":"cafe","cuisine":"coffee_shop","name":"Godt Brød","opening_hours":"06:00-18:00"}
{"_id":{"$oid":"5bc382c16773a056d8303bd7"},"openStreetMapId":"3441434847","location":{"coordinates":[10.7286756,59.9105983],"type":"Point"},"amenity":"cafe","cuisine":"coffee_shop","name":"Espresso House","toilets:wheelchair":"yes","wheelchair":"yes"}
{"_id":{"$oid":"5bc382c26773a056d8303bd8"},"openStreetMapId":"3441434871","location":{"coordinates":[10.7321373,59.9133781],"type":"Point"},"amenity":"cafe","cuisine":"coffee_shop","name":"Wayne's Coffee"}
{"_id":{"$oid":"5bc382c26773a056d8303bd9"},"openStreetMapId":"3471869888","location":{"coordinates":[10.7546053,59.9378614],"type":"Point"},"addr:city":"Oslo","addr:housenumber":"14","addr:postcode":"0463","addr:street":"Arendalsgata","amenity":"cafe","cuisine":"coffee_shop","name":"Coffeeshop Company","opening_hours":"Mo-Fr 07:00-21:00;Sa-Su 09:00-20:00","website":"http://coffeeshopcompany.no/"}
{"_id":{"$oid":"5bc382c26773a056d8303bda"},"openStreetMapId":"3514876864","location":{"coordinates":[10.7169236,59.9282618],"type":"Point"},"addr:city":"Oslo","addr:country":"NO","addr:housenumber":"60","addr:postcode":"0366","addr:street":"Bogstadveien","amenity":"cafe","cuisine":"coffee_shop","name":"Starbucks","toilets:wheelchair":"yes","wheelchair":"yes"}
{"_id":{"$oid":"5bc382c26773a056d8303bdb"},"openStreetMapId":"3544034628","location":{"coordinates":[10.7682179,59.9085201],"type":"Point"},"addr:city":"Oslo","addr:country":"NO","addr:housenumber":"2","addr:postcode":"0656","addr:street":"Munkegata","amenity":"cafe","cuisine":"coffee_shop","name":"Stockfleths Gamlebyen","opening_hours":"Mo-Fr 07:00-18:00; Sa-Su 10:00-18:00"}
{"_id":{"$oid":"5bc382c26773a056d8303bdc"},"openStreetMapId":"3655173293","location":{"coordinates":[10.7577602,59.9081977],"type":"Point"},"amenity":"cafe","cuisine":"coffee_shop","name":"Joe \u0026 The Juice"}
{"_id":{"$oid":"5bc382c26773a056d8303bdd"},"openStreetMapId":"3655282219","location":{"coordinates":[10.7632009,59.9112738],"type":"Point"},"amenity":"cafe","cuisine":"coffee_shop","name":"Evita Espressobar"}
{"_id":{"$oid":"5bc382c26773a056d8303bde"},"openStreetMapId":"3664306362","location":{"coordinates":[10.7662469,59.912392],"type":"Point"},"amenity":"cafe","cuisine":"coffee_shop","name":"la manga"}
{"_id":{"$oid":"5bc382c26773a056d8303bdf"},"openStreetMapId":"3665953767","location":{"coordinates":[10.7666813,59.9486101],"type":"Point"},"amenity":"cafe","cuisine":"coffee_shop","name":"LekkerDisken"}
{"_id":{"$oid":"5bc382c26773a056d8303be0"},"openStreetMapId":"3729794625","location":{"coordinates":[10.7580777,59.9087145],"type":"Point"},"amenity":"cafe","cuisine":"coffee_shop","name":"Espresso House"}
{"_id":{"$oid":"5bc382c26773a056d8303be1"},"openStreetMapId":"3748075035","location":{"coordinates":[10.7280362,59.9475327],"type":"Point"},"amenity":"cafe","cuisine":"coffee_shop","name":"Lille Cafe","wifi":"yes"}
{"_id":{"$oid":"5bc382c26773a056d8303be2"},"openStreetMapId":"3932053255","location":{"coordinates":[10.7676892,59.9488234],"type":"Point"},"amenity":"cafe","cuisine":"coffee_shop","name":"Starbucks"}
{"_id":{"$oid":"5bc382c26773a056d8303be3"},"openStreetMapId":"3977735965","location":{"coordinates":[10.7758711,59.9264444],"type":"Point"},"amenity":"cafe","cuisine":"coffee_shop","name":"Kaffekompaniet"}
{"_id":{"$oid":"5bc382c26773a056d8303be4"},"openStreetMapId":"4014560357","location":{"coordinates":[10.7612863,59.9259845],"type":"Point"},"addr:city":"Oslo","addr:country":"NO","addr:housenumber":"48A","addr:postcode":"0556","addr:street":"Toftes gate","amenity":"cafe","cuisine":"coffee_shop","name":"Cocoa","opening_hours":"10:00-19:00","website":"http://cocoa.no"}
{"_id":{"$oid":"5bc382c26773a056d8303be5"},"openStreetMapId":"4109872729","location":{"coordinates":[10.865523,59.927151],"type":"Point"},"amenity":"cafe","cuisine":"coffee_shop","name":"Memento Vivere","opening_hours":"Mo-Fr 06:30-17:00; Sa-Su 11:00-16:00","smoking":"no"}
{"_id":{"$oid":"5bc382c26773a056d8303be6"},"openStreetMapId":"4147050283","location":{"coordinates":[10.6282513,59.9024541],"type":"Point"},"amenity":"cafe","cuisine":"coffee_shop","name":"Rast Coffee \u0026 Tea","opening_hours":"Mo-Fr 08:00-17:00; Sa-Su 11:00-17:00","wheelchair":"yes"}
{"_id":{"$oid":"5bc382c26773a056d8303be7"},"openStreetMapId":"4313863188","location":{"coordinates":[10.6827824,59.9207605],"type":"Point"},"addr:city":"Oslo","addr:housenumber":"11","addr:postcode":"0278","addr:street":"Karenslyst allé","amenity":"cafe","cuisine":"coffee_shop","name":"Starbucks","opening_hours":"Mo-Fr 07:00-19:00; Sa-Su 09:00-19:00","outdoor_seating":"yes","website":"https://www.starbucks.no","wheelchair":"yes","wifi":"yes"}
{"_id":{"$oid":"5bc382c36773a056d8303be8"},"openStreetMapId":"5071686908","location":{"coordinates":[10.7628251,59.9125548],"type":"Point"},"amenity":"cafe","cuisine":"coffee_shop","name":"Starbucks"}
